OBJECT_NAME,OBJECT_ID,EPOCH,MEAN_MOTION,ECCENTRICITY,INCLINATION,RA_OF_ASC_NODE,ARG_OF_PERICENTER,MEAN_ANOMALY,EPHEMERIS_TYPE,CLASSIFICATION_TYPE,NORAD_CAT_ID,ELEMENT_SET_NO,REV_AT_EPOCH,BSTAR,MEAN_MOTION_DOT,MEAN_MOTION_DDOT
GSAT0215 (GALILEO 19),2017-079A,2026-06-18T18:36:27.330912,1.70474593,.0003228,55.0730,221.4630,264.0800,95.9660,0,U,43055,999,5301,0,.28E-6,0
GSAT0216 (GALILEO 20),2017-079B,2026-06-17T21:26:22.395264,1.70474666,.00043172,55.0732,221.4873,276.2784,83.7610,0,U,43056,999,5301,0,.34E-6,0
GSAT0217 (GALILEO 21),2017-079C,2026-06-16T08:30:18.751680,1.70474228,.00049855,55.0717,221.5274,283.8791,76.1632,0,U,43057,999,5297,0,.47E-6,0
GSAT0218 (GALILEO 22),2017-079D,2026-06-19T12:10:33.425184,1.70474769,.0004305,55.0708,221.4378,273.7481,86.2815,0,U,43058,999,5305,0,.26E-6,0
BEIDOU-3 M7 (C27),2018-003A,2026-06-20T00:50:53.428704,1.86227890,.00048518,54.3254,302.2159,94.5867,265.4639,0,U,43107,999,5740,0,-.89E-6,0
BEIDOU-3 M8 (C28),2018-003B,2026-06-19T10:38:04.998624,1.86230746,.00025361,54.3186,302.2181,260.6635,99.3026,0,U,43108,999,5740,0,-.85E-6,0
BEIDOU-3 M4 (C22),2018-018A,2026-06-19T21:16:00.225408,1.86231045,.00077036,56.6538,63.0589,18.9715,341.0976,0,U,43207,999,5679,0,-.67E-6,0
BEIDOU-3 M3 (C21),2018-018B,2026-06-18T08:12:05.696640,1.86230730,.0008713,56.6516,63.1145,341.3004,18.7097,0,U,43208,999,5676,0,-.56E-6,0
BEIDOU-3 M9 (C29),2018-029A,2026-06-20T04:05:25.782720,1.86227999,.00009987,54.1908,299.8436,153.7677,206.2347,0,U,43245,999,5595,0,-.89E-6,0
BEIDOU-3 M10 (C30),2018-029B,2026-06-19T00:44:26.693664,1.86229038,.00037818,54.1899,299.9108,40.0504,319.9737,0,U,43246,999,5591,0,-.8E-6,0
IRNSS-1I,2018-035A,2026-06-15T20:09:20.172384,1.00272046,.00178117,28.7520,74.2167,181.5598,5.5147,0,U,43286,999,3006,0,.62E-6,0
COSMOS 2527 (756),2018-053A,2026-06-19T21:36:22.597920,2.13102048,.00069063,65.5791,73.8170,238.7549,121.2143,0,U,43508,999,6233,0,-.34E-6,0
BEIDOU-2 IGSO-7 (C16),2018-057A,2026-06-19T21:56:32.362080,1.00250534,.01050884,55.1954,163.0329,238.0240,305.9372,0,U,43539,999,2915,0,-.31E-6,0
GSAT0221 (GALILEO 25),2018-060A,2026-06-17T15:38:14.173152,1.70475954,.00025957,57.1692,341.7677,303.5364,56.4325,0,U,43564,999,4917,0,-.9E-6,0
GSAT0222 (GALILEO 26),2018-060B,2026-06-19T01:03:54.477792,1.70475706,.00019994,57.1718,341.7337,248.0862,111.8861,0,U,43565,999,4924,0,-.93E-6,0
GSAT0219 (GALILEO 23),2018-060C,2026-06-19T20:26:40.279776,1.70475963,.00019367,57.1714,341.7134,321.4616,38.5188,0,U,43566,999,4923,0,-.95E-6,0
GSAT0220 (GALILEO 24),2018-060D,2026-06-19T11:40:13.372032,1.70475760,.00021117,57.1712,341.7225,313.2574,46.7188,0,U,43567,999,4921,0,-.94E-6,0
BEIDOU-3 M5 (C23),2018-062A,2026-06-18T17:13:50.397888,1.86228577,.00056606,54.0850,182.2515,289.9886,69.9738,0,U,43581,999,5366,0,.56E-6,0
BEIDOU-3 M6 (C24),2018-062B,2026-06-19T15:43:41.195424,1.86227827,.00049718,54.0852,182.2089,8.2110,351.8190,0,U,43582,999,5368,0,.61E-6,0
BEIDOU-3 M12 (C26),2018-067A,2026-06-18T12:28:33.455424,1.86227728,.00078147,54.1807,180.9950,29.6797,330.3861,0,U,43602,999,5314,0,.56E-6,0
BEIDOU-3 M11 (C25),2018-067B,2026-06-19T17:29:29.945184,1.86227142,.00045161,54.1779,180.9175,12.6622,347.3686,0,U,43603,999,5319,0,.63E-6,0
BEIDOU-3 M13 (C32),2018-072A,2026-06-19T03:31:17.584320,1.86231019,.0007172,56.6261,62.5952,330.4158,29.5857,0,U,43622,999,5269,0,-.62E-6,0
BEIDOU-3 M14 (C33),2018-072B,2026-06-16T20:44:38.189760,1.86231280,.00061896,56.6260,62.6651,359.6599,0.3805,0,U,43623,999,5264,0,-.51E-6,0
BEIDOU-3 M16 (C35),2018-078A,2026-06-19T16:54:19.797984,1.86232287,.00071785,54.0873,299.8977,41.0553,318.9957,0,U,43647,999,5220,0,-.86E-6,0
BEIDOU-3 M15 (C34),2018-078B,2026-06-19T20:00:29.882880,1.86232385,.0004077,54.0830,299.8936,57.9752,302.0615,0,U,43648,999,5222,0,-.87E-6,0
BEIDOU-3 G1 (C59),2018-085A,2026-06-20T05:02:06.783936,1.00270321,.0008081,2.8770,97.2840,350.2271,56.3821,0,U,43683,999,2809,0,-.115E-5,0
COSMOS 2529 (757),2018-086A,2026-06-18T02:52:19.877664,2.13101950,.00120661,64.2948,192.5630,256.5324,103.3830,0,U,43687,999,5930,0,.57E-6,0
BEIDOU-3 M17 (C36),2018-093A,2026-06-20T03:27:05.686848,1.86228386,.00101903,54.1691,182.1955,292.3118,167.2714,0,U,43706,999,5159,0,.66E-6,0
BEIDOU-3 M18 (C37),2018-093B,2026-06-19T07:43:10.215264,1.86226376,.00080161,54.1697,182.2155,320.7909,39.1732,0,U,43707,999,5157,0,.59E-6,0
GPS BIII-1  (PRN 04),2018-109A,2026-06-19T06:24:05.791680,2.00561682,.00382019,55.6835,92.1043,197.8854,347.3976,0,U,43873,999,5511,0,-.15E-6,0
BEIDOU-3 IGSO-1 (C38),2019-023A,2026-06-20T00:32:38.719968,1.00290789,.00255895,58.6991,37.6192,225.6061,131.3285,0,U,44204,999,723,0,-.228E-5,0
